EUTELSAT 21B            
1 38992U 12062B   25334.79508571  .00000152  00000+0  00000+0 0  9997
2 38992   0.0720  14.5991 0003368 248.8119 114.3352  1.00272934 47833
EUTELSAT 70B            
1 39020U 12069A   25334.80479242 -.00000022  00000+0  00000+0 0  9998
2 39020   0.0625 355.6329 0004385 244.3064 190.2153  1.00271390 47527
EUTELSAT 117 WEST A     
1 39122U 13012A   25334.62500442  .00000009  00000+0  00000+0 0  9991
2 39122   0.0287  41.9131 0002996 207.3948 288.6573  1.00271674 46449
EUTELSAT 7B             
1 39163U 13022A   25334.72085291  .00000070  00000+0  00000+0 0  9996
2 39163   0.0677 353.2554 0004118 318.1711  24.9377  1.00271988 45969
EXPRESS-AT1             
1 39612U 14010A   25333.44646660  .00000000  00000+0  00000+0 0  9997
2 39612   0.0171 305.8840 0000069 305.3528  34.0533  1.00270814 42817
EXPRESS-AT2             
1 39613U 14010B   25334.24783119  .00000000  00000+0  00000+0 0  9998
2 39613   0.0182 313.8972 0001746 330.2956  14.2422  1.00267137 42507
EUTELSAT 3B             
1 39773U 14030A   25334.72007291  .00000041  00000+0  00000+0 0  9995
2 39773   0.0627 354.8733 0004725 230.0166 107.2908  1.00270394 42071
EUTELSAT 115 WEST B     
1 40425U 15010B   25334.62535110 -.00000003  00000+0  00000+0 0  9994
2 40425   0.0034 182.5543 0000189 262.3211  95.1100  1.00268232 39403
