{
  "type": "FeatureCollection",
  "features": [
    {
      "type": "Feature",
      "properties": {
        "norad_id": 38992,
        "name": "EUTELSAT 21B",
        "group": "eutelsat",
        "lat": NaN,
        "lon": NaN,
        "alt_km": NaN,
        "timestamp": "2025-12-01T03:08:33.665150+00:00",
        "meta": {
          "OBJECT_NAME": "EUTELSAT 21B",
          "OBJECT_ID": "2012-062B",
          "EPOCH": "2025-11-30T19:04:55.405344",
          "MEAN_MOTION": 1.00272934,
          "ECCENTRICITY": 0.0003368,
          "INCLINATION": 0.072,
          "RA_OF_ASC_NODE": 14.5991,
          "ARG_OF_PERICENTER": 248.8119,
          "MEAN_ANOMALY": 114.3352,
          "EPHEMERIS_TYPE": 0,
          "CLASSIFICATION_TYPE": "U",
          "NORAD_CAT_ID": 38992,
          "ELEMENT_SET_NO": 999,
          "REV_AT_EPOCH": 4783,
          "BSTAR": 0,
          "MEAN_MOTION_DOT": 1.52e-06,
          "MEAN_MOTION_DDOT": 0
        }
      },
      "geometry": {
        "type": "Point",
        "coordinates": [
          NaN,
          NaN
        ]
      }
    },
    {
      "type": "Feature",
      "properties": {
        "norad_id": 39020,
        "name": "EUTELSAT 70B",
        "group": "eutelsat",
        "lat": NaN,
        "lon": NaN,
        "alt_km": NaN,
        "timestamp": "2025-12-01T03:08:33.665592+00:00",
        "meta": {
          "OBJECT_NAME": "EUTELSAT 70B",
          "OBJECT_ID": "2012-069A",
          "EPOCH": "2025-11-30T19:18:54.065088",
          "MEAN_MOTION": 1.0027139,
          "ECCENTRICITY": 0.0004385,
          "INCLINATION": 0.0625,
          "RA_OF_ASC_NODE": 355.6329,
          "ARG_OF_PERICENTER": 244.3064,
          "MEAN_ANOMALY": 190.2153,
          "EPHEMERIS_TYPE": 0,
          "CLASSIFICATION_TYPE": "U",
          "NORAD_CAT_ID": 39020,
          "ELEMENT_SET_NO": 999,
          "REV_AT_EPOCH": 4752,
          "BSTAR": 0,
          "MEAN_MOTION_DOT": -2.2e-07,
          "MEAN_MOTION_DDOT": 0
        }
      },
      "geometry": {
        "type": "Point",
        "coordinates": [
          NaN,
          NaN
        ]
      }
    },
    {
      "type": "Feature",
      "properties": {
        "norad_id": 39122,
        "name": "EUTELSAT 117 WEST A",
        "group": "eutelsat",
        "lat": NaN,
        "lon": NaN,
        "alt_km": NaN,
        "timestamp": "2025-12-01T03:08:33.665991+00:00",
        "meta": {
          "OBJECT_NAME": "EUTELSAT 117 WEST A",
          "OBJECT_ID": "2013-012A",
          "EPOCH": "2025-11-30T15:00:00.381888",
          "MEAN_MOTION": 1.00271674,
          "ECCENTRICITY": 0.0002996,
          "INCLINATION": 0.0287,
          "RA_OF_ASC_NODE": 41.9131,
          "ARG_OF_PERICENTER": 207.3948,
          "MEAN_ANOMALY": 288.6573,
          "EPHEMERIS_TYPE": 0,
          "CLASSIFICATION_TYPE": "U",
          "NORAD_CAT_ID": 39122,
          "ELEMENT_SET_NO": 999,
          "REV_AT_EPOCH": 4644,
          "BSTAR": 0,
          "MEAN_MOTION_DOT": 9e-08,
          "MEAN_MOTION_DDOT": 0
        }
      },
      "geometry": {
        "type": "Point",
        "coordinates": [
          NaN,
          NaN
        ]
      }
    },
    {
      "type": "Feature",
      "properties": {
        "norad_id": 39163,
        "name": "EUTELSAT 7B",
        "group": "eutelsat",
        "lat": NaN,
        "lon": NaN,
        "alt_km": NaN,
        "timestamp": "2025-12-01T03:08:33.666434+00:00",
        "meta": {
          "OBJECT_NAME": "EUTELSAT 7B",
          "OBJECT_ID": "2013-022A",
          "EPOCH": "2025-11-30T17:18:01.691424",
          "MEAN_MOTION": 1.00271988,
          "ECCENTRICITY": 0.0004118,
          "INCLINATION": 0.0677,
          "RA_OF_ASC_NODE": 353.2554,
          "ARG_OF_PERICENTER": 318.1711,
          "MEAN_ANOMALY": 24.9377,
          "EPHEMERIS_TYPE": 0,
          "CLASSIFICATION_TYPE": "U",
          "NORAD_CAT_ID": 39163,
          "ELEMENT_SET_NO": 999,
          "REV_AT_EPOCH": 4596,
          "BSTAR": 0,
          "MEAN_MOTION_DOT": 7e-07,
          "MEAN_MOTION_DDOT": 0
        }
      },
      "geometry": {
        "type": "Point",
        "coordinates": [
          NaN,
          NaN
        ]
      }
    },
    {
      "type": "Feature",
      "properties": {
        "norad_id": 39612,
        "name": "EXPRESS-AT1",
        "group": "eutelsat",
        "lat": NaN,
        "lon": NaN,
        "alt_km": NaN,
        "timestamp": "2025-12-01T03:08:33.666872+00:00",
        "meta": {
          "OBJECT_NAME": "EXPRESS-AT1",
          "OBJECT_ID": "2014-010A",
          "EPOCH": "2025-11-29T10:42:54.714240",
          "MEAN_MOTION": 1.00270814,
          "ECCENTRICITY": 6.93e-06,
          "INCLINATION": 0.0171,
          "RA_OF_ASC_NODE": 305.884,
          "ARG_OF_PERICENTER": 305.3528,
          "MEAN_ANOMALY": 34.0533,
          "EPHEMERIS_TYPE": 0,
          "CLASSIFICATION_TYPE": "U",
          "NORAD_CAT_ID": 39612,
          "ELEMENT_SET_NO": 999,
          "REV_AT_EPOCH": 4281,
          "BSTAR": 0,
          "MEAN_MOTION_DOT": 0,
          "MEAN_MOTION_DDOT": 0
        }
      },
      "geometry": {
        "type": "Point",
        "coordinates": [
          NaN,
          NaN
        ]
      }
    },
    {
      "type": "Feature",
      "properties": {
        "norad_id": 39613,
        "name": "EXPRESS-AT2",
        "group": "eutelsat",
        "lat": NaN,
        "lon": NaN,
        "alt_km": NaN,
        "timestamp": "2025-12-01T03:08:33.667273+00:00",
        "meta": {
          "OBJECT_NAME": "EXPRESS-AT2",
          "OBJECT_ID": "2014-010B",
          "EPOCH": "2025-11-30T05:56:52.614816",
          "MEAN_MOTION": 1.00267137,
          "ECCENTRICITY": 0.00017469,
          "INCLINATION": 0.0182,
          "RA_OF_ASC_NODE": 313.8972,
          "ARG_OF_PERICENTER": 330.2956,
          "MEAN_ANOMALY": 14.2422,
          "EPHEMERIS_TYPE": 0,
          "CLASSIFICATION_TYPE": "U",
          "NORAD_CAT_ID": 39613,
          "ELEMENT_SET_NO": 999,
          "REV_AT_EPOCH": 4250,
          "BSTAR": 0,
          "MEAN_MOTION_DOT": 0,
          "MEAN_MOTION_DDOT": 0
        }
      },
      "geometry": {
        "type": "Point",
        "coordinates": [
          NaN,
          NaN
        ]
      }
    },
    {
      "type": "Feature",
      "properties": {
        "norad_id": 39773,
        "name": "EUTELSAT 3B",
        "group": "eutelsat",
        "lat": NaN,
        "lon": NaN,
        "alt_km": NaN,
        "timestamp": "2025-12-01T03:08:33.667680+00:00",
        "meta": {
          "OBJECT_NAME": "EUTELSAT 3B",
          "OBJECT_ID": "2014-030A",
          "EPOCH": "2025-11-30T17:16:54.299424",
          "MEAN_MOTION": 1.00270394,
          "ECCENTRICITY": 0.0004725,
          "INCLINATION": 0.0627,
          "RA_OF_ASC_NODE": 354.8733,
          "ARG_OF_PERICENTER": 230.0166,
          "MEAN_ANOMALY": 107.2908,
          "EPHEMERIS_TYPE": 0,
          "CLASSIFICATION_TYPE": "U",
          "NORAD_CAT_ID": 39773,
          "ELEMENT_SET_NO": 999,
          "REV_AT_EPOCH": 4207,
          "BSTAR": 0,
          "MEAN_MOTION_DOT": 4.1e-07,
          "MEAN_MOTION_DDOT": 0
        }
      },
      "geometry": {
        "type": "Point",
        "coordinates": [
          NaN,
          NaN
        ]
      }
    },
    {
      "type": "Feature",
      "properties": {
        "norad_id": 40425,
        "name": "EUTELSAT 115 WEST B",
        "group": "eutelsat",
        "lat": NaN,
        "lon": NaN,
        "alt_km": NaN,
        "timestamp": "2025-12-01T03:08:33.668121+00:00",
        "meta": {
          "OBJECT_NAME": "EUTELSAT 115 WEST B",
          "OBJECT_ID": "2015-010B",
          "EPOCH": "2025-11-30T15:00:30.335040",
          "MEAN_MOTION": 1.00268232,
          "ECCENTRICITY": 1.89e-05,
          "INCLINATION": 0.0034,
          "RA_OF_ASC_NODE": 182.5543,
          "ARG_OF_PERICENTER": 262.3211,
          "MEAN_ANOMALY": 95.11,
          "EPHEMERIS_TYPE": 0,
          "CLASSIFICATION_TYPE": "U",
          "NORAD_CAT_ID": 40425,
          "ELEMENT_SET_NO": 999,
          "REV_AT_EPOCH": 3940,
          "BSTAR": 0,
          "MEAN_MOTION_DOT": -3e-08,
          "MEAN_MOTION_DDOT": 0
        }
      },
      "geometry": {
        "type": "Point",
        "coordinates": [
          NaN,
          NaN
        ]
      }
    }
  ]
}